[{"OBJECT_NAME":"UTMN 2 (RS27S)","OBJECT_ID":"2023-091AP","EPOCH":"2026-03-09T23:09:07.917408","MEAN_MOTION":15.29495965,"ECCENTRICITY":0.00097379,"INCLINATION":97.5194,"RA_OF_ASC_NODE":134.949,"ARG_OF_PERICENTER":76.0788,"MEAN_ANOMALY":284.1534,"EPHEMERIS_TYPE":0,"CLASSIFICATION_TYPE":"U","NORAD_CAT_ID":57203,"ELEMENT_SET_NO":999,"REV_AT_EPOCH":14936,"BSTAR":0.00056135701,"MEAN_MOTION_DOT":0.00016013,"MEAN_MOTION_DDOT":0},{"OBJECT_NAME":"STARLINK-35168","OBJECT_ID":"2025-198T","EPOCH":"2026-03-09T20:18:33.770880","MEAN_MOTION":15.30205232,"ECCENTRICITY":8.304e-5,"INCLINATION":53.1576,"RA_OF_ASC_NODE":270.2991,"ARG_OF_PERICENTER":85.4379,"MEAN_ANOMALY":274.6717,"EPHEMERIS_TYPE":0,"CLASSIFICATION_TYPE":"U","NORAD_CAT_ID":65509,"ELEMENT_SET_NO":999,"REV_AT_EPOCH":2864,"BSTAR":0.001003799,"MEAN_MOTION_DOT":0.00029493,"MEAN_MOTION_DDOT":0}]
